{
  "type": "FeatureCollection",
  "features": [
    {
      "type": "Feature",
      "properties": {
        "norad_id": 31508,
        "name": "FENGYUN 1C DEB",
        "group": "fengyun-1c-debris",
        "lat": -25.304027898099775,
        "lon": 95.84943087159442,
        "alt_km": 667.654073765756,
        "timestamp": "2025-12-09T07:41:33.491297+00:00",
        "meta_object_name": "FENGYUN 1C DEB",
        "meta_object_id": "1999-025BWX",
        "meta_epoch": "2025-12-06T12:28:43.968576",
        "meta_mean_motion": 14.62244446,
        "meta_eccentricity": 0.00332175,
        "meta_inclination": 98.6332,
        "meta_ra_of_asc_node": 88.8049,
        "meta_arg_of_pericenter": 344.7452,
        "meta_mean_anomaly": 15.2744,
        "meta_ephemeris_type": 0,
        "meta_classification_type": "U",
        "meta_norad_cat_id": 31508,
        "meta_element_set_no": 999,
        "meta_rev_at_epoch": 96833,
        "meta_bstar": 0.004912467,
        "meta_mean_motion_dot": 0.00024993,
        "meta_mean_motion_ddot": 0,
        "tle_line1": "1 31508U 99025BWX 25340.51995334  .00024993  00000+0  49125-2 0  9994",
        "tle_line2": "2 31508  98.6332  88.8049 0033217 344.7452  15.2744 14.62244446968331"
      },
      "geometry": {
        "type": "Point",
        "coordinates": [
          95.84943087159442,
          -25.304027898099775
        ]
      }
    },
    {
      "type": "Feature",
      "properties": {
        "norad_id": 31509,
        "name": "FENGYUN 1C DEB",
        "group": "fengyun-1c-debris",
        "lat": 50.42305665497501,
        "lon": -66.27565750442963,
        "alt_km": 927.4806420671866,
        "timestamp": "2025-12-09T07:41:33.491307+00:00",
        "meta_object_name": "FENGYUN 1C DEB",
        "meta_object_id": "1999-025BWY",
        "meta_epoch": "2025-12-08T19:00:27.435744",
        "meta_mean_motion": 13.94852402,
        "meta_eccentricity": 0.02041633,
        "meta_inclination": 99.0226,
        "meta_ra_of_asc_node": 102.1249,
        "meta_arg_of_pericenter": 229.1585,
        "meta_mean_anomaly": 129.1722,
        "meta_ephemeris_type": 0,
        "meta_classification_type": "U",
        "meta_norad_cat_id": 31509,
        "meta_element_set_no": 999,
        "meta_rev_at_epoch": 93907,
        "meta_bstar": 0.0039149499,
        "meta_mean_motion_dot": 6.212e-05,
        "meta_mean_motion_ddot": 0,
        "tle_line1": "1 31509U 99025BWY 25342.79198421  .00006212  00000+0  39149-2 0  9998",
        "tle_line2": "2 31509  99.0226 102.1249 0204163 229.1585 129.1722 13.94852402939075"
      },
      "geometry": {
        "type": "Point",
        "coordinates": [
          -66.27565750442963,
          50.42305665497501
        ]
      }
    },
    {
      "type": "Feature",
      "properties": {
        "norad_id": 31510,
        "name": "FENGYUN 1C DEB",
        "group": "fengyun-1c-debris",
        "lat": -74.97634680312893,
        "lon": 128.5027789723886,
        "alt_km": 814.4982045719389,
        "timestamp": "2025-12-09T07:41:33.491318+00:00",
        "meta_object_name": "FENGYUN 1C DEB",
        "meta_object_id": "1999-025BWZ",
        "meta_epoch": "2025-12-08T19:16:10.278336",
        "meta_mean_motion": 14.24548656,
        "meta_eccentricity": 0.00373436,
        "meta_inclination": 98.5536,
        "meta_ra_of_asc_node": 342.1072,
        "meta_arg_of_pericenter": 343.301,
        "meta_mean_anomaly": 141.6103,
        "meta_ephemeris_type": 0,
        "meta_classification_type": "U",
        "meta_norad_cat_id": 31510,
        "meta_element_set_no": 999,
        "meta_rev_at_epoch": 96431,
        "meta_bstar": 0.00099236362,
        "meta_mean_motion_dot": 2.277e-05,
        "meta_mean_motion_ddot": 0,
        "tle_line1": "1 31510U 99025BWZ 25342.80289674  .00002277  00000+0  99236-3 0  9994",
        "tle_line2": "2 31510  98.5536 342.1072 0037343 343.3010 141.6103 14.24548656964315"
      },
      "geometry": {
        "type": "Point",
        "coordinates": [
          128.5027789723886,
          -74.97634680312893
        ]
      }
    },
    {
      "type": "Feature",
      "properties": {
        "norad_id": 31511,
        "name": "FENGYUN 1C DEB",
        "group": "fengyun-1c-debris",
        "lat": -26.059477174983254,
        "lon": -32.64260738208433,
        "alt_km": 735.5564172586146,
        "timestamp": "2025-12-09T07:41:33.491328+00:00",
        "meta_object_name": "FENGYUN 1C DEB",
        "meta_object_id": "1999-025BXA",
        "meta_epoch": "2025-12-05T22:00:15.181632",
        "meta_mean_motion": 14.27991614,
        "meta_eccentricity": 0.01096951,
        "meta_inclination": 99.0676,
        "meta_ra_of_asc_node": 148.3037,
        "meta_arg_of_pericenter": 246.1309,
        "meta_mean_anomaly": 112.8345,
        "meta_ephemeris_type": 0,
        "meta_classification_type": "U",
        "meta_norad_cat_id": 31511,
        "meta_element_set_no": 999,
        "meta_rev_at_epoch": 95703,
        "meta_bstar": 0.002130032,
        "meta_mean_motion_dot": 5.59e-05,
        "meta_mean_motion_ddot": 0,
        "tle_line1": "1 31511U 99025BXA 25339.91684238  .00005590  00000+0  21300-2 0  9995",
        "tle_line2": "2 31511  99.0676 148.3037 0109695 246.1309 112.8345 14.27991614957033"
      },
      "geometry": {
        "type": "Point",
        "coordinates": [
          -32.64260738208433,
          -26.059477174983254
        ]
      }
    },
    {
      "type": "Feature",
      "properties": {
        "norad_id": 31512,
        "name": "FENGYUN 1C DEB",
        "group": "fengyun-1c-debris",
        "lat": -71.7849820916468,
        "lon": 30.489053160365724,
        "alt_km": 763.8628300332448,
        "timestamp": "2025-12-09T07:41:33.491338+00:00",
        "meta_object_name": "FENGYUN 1C DEB",
        "meta_object_id": "1999-025BXB",
        "meta_epoch": "2025-12-08T12:48:35.254368",
        "meta_mean_motion": 14.43799884,
        "meta_eccentricity": 0.01441178,
        "meta_inclination": 98.8038,
        "meta_ra_of_asc_node": 237.7712,
        "meta_arg_of_pericenter": 159.54,
        "meta_mean_anomaly": 325.6623,
        "meta_ephemeris_type": 0,
        "meta_classification_type": "U",
        "meta_norad_cat_id": 31512,
        "meta_element_set_no": 999,
        "meta_rev_at_epoch": 65441,
        "meta_bstar": 0.00071474432,
        "meta_mean_motion_dot": 2.709e-05,
        "meta_mean_motion_ddot": 0,
        "tle_line1": "1 31512U 99025BXB 25342.53374137  .00002709  00000+0  71474-3 0  9999",
        "tle_line2": "2 31512  98.8038 237.7712 0144117 159.5400 325.6623 14.43799884654415"
      },
      "geometry": {
        "type": "Point",
        "coordinates": [
          30.489053160365724,
          -71.7849820916468
        ]
      }
    },
    {
      "type": "Feature",
      "properties": {
        "norad_id": 31513,
        "name": "FENGYUN 1C DEB",
        "group": "fengyun-1c-debris",
        "lat": -59.077073515663706,
        "lon": -115.12739824888442,
        "alt_km": 795.7888412135762,
        "timestamp": "2025-12-09T07:41:33.491348+00:00",
        "meta_object_name": "FENGYUN 1C DEB",
        "meta_object_id": "1999-025BXC",
        "meta_epoch": "2025-11-25T02:15:23.832576",
        "meta_mean_motion": 14.32315683,
        "meta_eccentricity": 0.00282412,
        "meta_inclination": 98.8622,
        "meta_ra_of_asc_node": 65.435,
        "meta_arg_of_pericenter": 176.3464,
        "meta_mean_anomaly": 183.7931,
        "meta_ephemeris_type": 0,
        "meta_classification_type": "U",
        "meta_norad_cat_id": 31513,
        "meta_element_set_no": 999,
        "meta_rev_at_epoch": 72616,
        "meta_bstar": 0.0023967664,
        "meta_mean_motion_dot": 6.459e-05,
        "meta_mean_motion_ddot": 0,
        "tle_line1": "1 31513U 99025BXC 25329.09402584  .00006459  00000+0  23968-2 0  9994",
        "tle_line2": "2 31513  98.8622  65.4350 0028241 176.3464 183.7931 14.32315683726161"
      },
      "geometry": {
        "type": "Point",
        "coordinates": [
          -115.12739824888442,
          -59.077073515663706
        ]
      }
    },
    {
      "type": "Feature",
      "properties": {
        "norad_id": 31514,
        "name": "FENGYUN 1C DEB",
        "group": "fengyun-1c-debris",
        "lat": -61.136319280225415,
        "lon": -98.90481260994207,
        "alt_km": 866.6793641087279,
        "timestamp": "2025-12-09T07:41:33.491358+00:00",
        "meta_object_name": "FENGYUN 1C DEB",
        "meta_object_id": "1999-025BXD",
        "meta_epoch": "2025-12-08T16:46:46.444224",
        "meta_mean_motion": 14.20945715,
        "meta_eccentricity": 0.00524141,
        "meta_inclination": 99.2466,
        "meta_ra_of_asc_node": 243.2553,
        "meta_arg_of_pericenter": 126.5945,
        "meta_mean_anomaly": 234.0069,
        "meta_ephemeris_type": 0,
        "meta_classification_type": "U",
        "meta_norad_cat_id": 31514,
        "meta_element_set_no": 999,
        "meta_rev_at_epoch": 69267,
        "meta_bstar": 0.0024430933,
        "meta_mean_motion_dot": 5.32e-05,
        "meta_mean_motion_ddot": 0,
        "tle_line1": "1 31514U 99025BXD 25342.69914866  .00005320  00000+0  24431-2 0  9999",
        "tle_line2": "2 31514  99.2466 243.2553 0052414 126.5945 234.0069 14.20945715692676"
      },
      "geometry": {
        "type": "Point",
        "coordinates": [
          -98.90481260994207,
          -61.136319280225415
        ]
      }
    }
  ]
}